[{"OBJECT_NAME":"ORBCOMM FM117","OBJECT_ID":"2015-081K","EPOCH":"2026-03-08T23:37:11.280576","MEAN_MOTION":14.58734322,"ECCENTRICITY":0.00025428,"INCLINATION":47.0015,"RA_OF_ASC_NODE":294.572,"ARG_OF_PERICENTER":102.3164,"MEAN_ANOMALY":257.8006,"EPHEMERIS_TYPE":0,"CLASSIFICATION_TYPE":"U","NORAD_CAT_ID":41188,"ELEMENT_SET_NO":999,"REV_AT_EPOCH":54549,"BSTAR":0.00024145216,"MEAN_MOTION_DOT":9.67e-6,"MEAN_MOTION_DDOT":0},{"OBJECT_NAME":"FENGYUN 1C DEB","OBJECT_ID":"1999-025EEM","EPOCH":"2026-03-05T03:01:16.328352","MEAN_MOTION":14.54910474,"ECCENTRICITY":0.00404291,"INCLINATION":99.14,"RA_OF_ASC_NODE":182.7405,"ARG_OF_PERICENTER":282.1567,"MEAN_ANOMALY":203.1264,"EPHEMERIS_TYPE":0,"CLASSIFICATION_TYPE":"U","NORAD_CAT_ID":37053,"ELEMENT_SET_NO":999,"REV_AT_EPOCH":66235,"BSTAR":0.0019757941,"MEAN_MOTION_DOT":8.54e-5,"MEAN_MOTION_DDOT":0}]
